NORAD_CAT_ID,OBJECT_NAME,OBJECT_TYPE,EPOCH,MEAN_MOTION,ECCENTRICITY,INCLINATION,RA_OF_ASC_NODE,ARG_OF_PERICENTER,MEAN_ANOMALY,BSTAR,MEAN_MOTION_DOT,MEAN_MOTION_DDOT,TLE_LINE0,TLE_LINE1,TLE_LINE2,SEMIMAJOR_AXIS,PERIOD,APOGEE,PERIGEE,DECAYED
51735.0,STARLINK-3517,PAYLOAD,2022-06-19 14:00:01,15.08866782,0.0001496,53.2181,300.3784,55.2255,149.5186,-0.0031477,-0.00050072,0.0,0 STARLINK-3517,1 51735U 22016X   22170.58334491 -.00050072  00000-0 -31477-2 0  9991,2 51735  53.2181 300.3784 0001496  55.2255 149.5186 15.08866782  1301,6917.799,95.436,540.698,538.629,0.0
51735.0,STARLINK-3517,PAYLOAD,2022-06-19 20:00:01,15.0882261,0.0001528,53.2178,299.2567,49.0539,74.4039,0.0032555,0.0005187999999999,0.0,0 STARLINK-3517,1 51735U 22016X   22170.83334491  .00051880  00000-0  32555-2 0  9993,2 51735  53.2178 299.2567 0001528  49.0539  74.4039 15.08822610 19544,6917.934,95.439,540.856,538.741,0.0
51735.0,STARLINK-3517,PAYLOAD,2022-06-19 22:00:00,15.08854721,0.0001522,53.2177,298.8821,50.0876,166.2599,-0.00055026,-9.038e-05,0.0,0 STARLINK-3517,1 51735U 22016X   22170.91667824 -.00009038  00000-0 -55026-3 0  9990,2 51735  53.2177 298.8821 0001522  50.0876 166.2599 15.08854721  1305,6917.835,95.437,540.753,538.6469999999998,0.0
51735.0,STARLINK-3517,PAYLOAD,2022-06-20 06:00:00,15.08821262,0.0001455,53.2176,297.384,58.2798,169.6848,0.0016878,0.00026662,0.0,0 STARLINK-3517,1 51735U 22016X   22171.25001157  .00026662  00000-0  16878-2 0  9990,2 51735  53.2176 297.3840 0001455  58.2798 169.6848 15.08821262 19607,6917.938,95.439,540.809,538.7959999999998,0.0
51735.0,STARLINK-3517,PAYLOAD,2022-06-20 14:00:01,15.08832689,0.000164,53.2177,295.8895,55.9334,183.5561,-0.00052913,-8.698e-05,0.0,0 STARLINK-3517,1 51735U 22016X   22171.58334491 -.00008698  00000-0 -52913-3 0  9998,2 51735  53.2177 295.8895 0001640  55.9334 183.5561 15.08832689  1307,6917.903,95.438,540.9019999999998,538.633,0.0
51735.0,STARLINK-3517,PAYLOAD,2022-06-20 22:00:00,15.08849397,0.0001646,53.2176,294.3931,51.9864,199.0856,-0.00029933,-5.05e-05,0.0,0 STARLINK-3517,1 51735U 22016X   22171.91667824 -.00005050  00000-0 -29933-3 0  9999,2 51735  53.2176 294.3931 0001646  51.9864 199.0856 15.08849397  1304,6917.852,95.437,540.855,538.578,0.0
51735.0,STARLINK-3517,PAYLOAD,2022-06-21 06:00:00,15.08831661,0.0001549,53.2177,292.895,58.93600000000001,203.747,0.0033249,0.00053014,0.0,0 STARLINK-3517,1 51735U 22016X   22172.25001157  .00053014  00000-0  33249-2 0  9993,2 51735  53.2177 292.8950 0001549  58.9360 203.7470 15.08831661 19757,6917.906,95.438,540.842,538.6990000000002,0.0
51735.0,STARLINK-3517,PAYLOAD,2022-06-21 14:00:01,15.08876833,0.0001665,53.2178,291.4003,54.0011,220.283,-0.0028975,-0.00046153,0.0,0 STARLINK-3517,1 51735U 22016X   22172.58334491 -.00046153  00000-0 -28975-2 0  9997,2 51735  53.2178 291.4003 0001665  54.0011 220.2830 15.08876833  1307,6917.768,95.435,540.785,538.481,0.0
51735.0,STARLINK-3517,PAYLOAD,2022-06-21 22:00:00,15.08869536,0.0001638,53.2178,289.9037,50.3508,235.5506,-0.0038686,-0.00061382,0.0,0 STARLINK-3517,1 51735U 22016X   22172.91667824 -.00061382  00000-0 -38686-2 0  9994,2 51735  53.2178 289.9037 0001638  50.3508 235.5506 15.08869536  1307,6917.79,95.436,540.788,538.5219999999998,0.0
51735.0,STARLINK-3517,PAYLOAD,2022-06-22 00:00:02,15.08865391,0.0001619,53.2179,289.5289,52.194,326.673,-0.0042075,-0.00066677,0.0,0 STARLINK-3517,1 51735U 22016X   22173.00002315 -.00066677  00000-0 -42075-2 0  9992,2 51735  53.2179 289.5289 0001619  52.1940 326.6730 15.08865391 19868,6917.803000000001,95.436,540.788,538.548,0.0
51735.0,STARLINK-3517,PAYLOAD,2022-06-22 14:00:01,15.08834841,0.0001745,53.2183,286.911,53.8514,255.232,-0.00036632,-6.113e-05,0.0,0 STARLINK-3517,1 51735U 22016X   22173.58334491 -.00006113  00000-0 -36632-3 0  9990,2 51735  53.2183 286.9110 0001745  53.8514 255.2320 15.08834841  1300,6917.896,95.438,540.9680000000002,538.554,0.0
51735.0,STARLINK-3517,PAYLOAD,2022-06-22 16:00:00,15.08824207,0.000178,53.2184,286.5373,52.9131,349.0694,0.0012876,0.00020255,0.0,0 STARLINK-3517,1 51735U 22016X   22173.66667824  .00020255  00000-0  12876-2 0  9992,2 51735  53.2184 286.5373 0001780  52.9131 349.0694 15.08824207 19975,6917.929,95.439,541.025,538.562,0.0
51735.0,STARLINK-3517,PAYLOAD,2022-06-22 22:00:00,15.08858517,0.0001706999999999,53.2182,285.4144,51.6045,269.0642,-0.0012835,-0.00020667,0.0,0 STARLINK-3517,1 51735U 22016X   22173.91667824 -.00020667  00000-0 -12835-2 0  9994,2 51735  53.2182 285.4144 0001707  51.6045 269.0642 15.08858517  1309,6917.824000000001,95.436,540.87,538.508,0.0
51735.0,STARLINK-3517,PAYLOAD,2022-06-23 14:00:01,15.08855571,0.0001693,53.2186,282.4219,52.212,291.6827,-0.0020574,-0.00032897,0.0,0 STARLINK-3517,1 51735U 22016X   22174.58334491 -.00032897  00000-0 -20574-2 0  9996,2 51735  53.2186 282.4219 0001693  52.2120 291.6827 15.08855571  1301,6917.833000000001,95.437,540.869,538.5269999999998,0.0
51735.0,STARLINK-3517,PAYLOAD,2022-06-23 22:00:00,15.08855997,0.0001662,53.2184,280.925,51.1663,304.3255,-0.0037139,-0.00058937,0.0,0 STARLINK-3517,1 51735U 22016X   22174.91667824 -.00058937  00000-0 -37139-2 0  9990,2 51735  53.2184 280.9250 0001662  51.1663 304.3255 15.08855997 20156,6917.831,95.437,540.846,538.547,0.0
51735.0,STARLINK-3517,PAYLOAD,2022-06-24 14:00:01,15.08826935,0.0001728,53.2187,277.933,53.9497,324.7197,-0.00033642,-5.636e-05,0.0,0 STARLINK-3517,1 51735U 22016X   22175.58334491 -.00005636  00000-0 -33642-3 0  9999,2 51735  53.2187 277.9330 0001728  53.9497 324.7197 15.08826935 20254,6917.92,95.438,540.981,538.59,0.0
51735.0,STARLINK-3517,PAYLOAD,2022-06-24 22:00:01,15.08847221,0.0001657,53.2184,276.436,53.5793,336.7258,-0.0018852,-0.00030172,0.0,0 STARLINK-3517,1 51735U 22016X   22175.91668981 -.00030172  00000-0 -18852-2 0  9998,2 51735  53.2184 276.4360 0001657  53.5793 336.7258 15.08847221  1301,6917.858,95.437,540.87,538.577,0.0
51735.0,STARLINK-3517,PAYLOAD,2022-06-25 14:00:01,15.08842455,0.0001705,53.2185,273.4444,54.5702,358.8576,-5.0583e-05,-1.093e-05,0.0,0 STARLINK-3517,1 51735U 22016X   22176.58334491 -.00001093  00000-0 -50583-4 0  9997,2 51735  53.2185 273.4444 0001705  54.5702 358.8576 15.08842455  1309,6917.873000000001,95.437,540.9169999999998,538.558,0.0
51735.0,STARLINK-3517,PAYLOAD,2022-06-25 16:00:00,15.08825792,0.0001698,53.2186,273.0705,52.7094,93.6228,0.0023883,0.00037912,0.0,0 STARLINK-3517,1 51735U 22016X   22176.66667824  .00037912  00000-0  23883-2 0  9993,2 51735  53.2186 273.0705 0001698  52.7094  93.6228 15.08825792 20428,6917.924,95.438,540.9630000000002,538.614,0.0
51735.0,STARLINK-3517,PAYLOAD,2022-06-25 22:00:00,15.08866934,0.0001625,53.2181,271.9471,54.5123,10.513,-0.0016559,-0.00026564,0.0,0 STARLINK-3517,1 51735U 22016X   22176.91667824 -.00026564  00000-0 -16559-2 0  9996,2 51735  53.2181 271.9471 0001625  54.5123  10.5130 15.08866934  1302,6917.7980000000025,95.436,540.7869999999998,538.539,0.0
51735.0,STARLINK-3517,PAYLOAD,2022-06-26 14:00:01,15.08838752,0.0001617,53.2181,268.9556,52.6057,35.7316,0.00032657,4.913e-05,0.0,0 STARLINK-3517,1 51735U 22016X   22177.58335648  .00004913  00000-0  32657-3 0  9996,2 51735  53.2181 268.9556 0001617  52.6057  35.7316 15.08838752 20569,6917.884,95.438,540.868,538.631,0.0
51735.0,STARLINK-3517,PAYLOAD,2022-06-26 22:00:00,15.08863795,0.0001574,53.2178,267.4583,53.4682,46.3966,-0.004207,-0.00066666,0.0,0 STARLINK-3517,1 51735U 22016X   22177.91667824 -.00066666  00000-0 -42070-2 0  9991,2 51735  53.2178 267.4583 0001574  53.4682  46.3966 15.08863795  1309,6917.808000000001,95.436,540.762,538.5840000000002,0.0
51735.0,STARLINK-3517,PAYLOAD,2022-06-27 14:00:01,15.08828503,0.0001663,53.2178,264.467,52.3932,70.6455,-0.0020306,-0.0003245,0.0,0 STARLINK-3517,1 51735U 22016X   22178.58334491 -.00032450  00000-0 -20306-2 0  9998,2 51735  53.2178 264.4670 0001663  52.3932  70.6455 15.08828503 20715,6917.916,95.438,540.931,538.63,0.0
51735.0,STARLINK-3517,PAYLOAD,2022-06-27 22:00:00,15.08824016,0.0001529,53.2176,262.9696,51.646,82.9633,-0.0014871,-0.00023867,0.0,0 STARLINK-3517,1 51735U 22016X   22178.91667824 -.00023867  00000-0 -14871-2 0  9996,2 51735  53.2176 262.9696 0001529  51.6460  82.9633 15.08824016  1306,6917.929,95.439,540.852,538.736,0.0
51735.0,STARLINK-3517,PAYLOAD,2022-06-28 06:00:00,15.088150699999998,0.0001519,53.2178,261.4727,57.7186,88.4468,0.00075492,0.00011739,0.0,0 STARLINK-3517,1 51735U 22016X   22179.25001157  .00011739  00000-0  75492-3 0  9995,2 51735  53.2178 261.4727 0001519  57.7186  88.4468 15.08815070 20812,6917.956999999999,95.439,540.872,538.771,0.0
51735.0,STARLINK-3517,PAYLOAD,2022-06-28 14:00:01,15.08803886,0.0001679,53.2177,259.9784,49.8972,107.8375,0.0012529,0.00019688,0.0,0 STARLINK-3517,1 51735U 22016X   22179.58334491  .00019688  00000-0  12529-2 0  9993,2 51735  53.2177 259.9784 0001679  49.8972 107.8375 15.08803886  1306,6917.991,95.44,541.0169999999998,538.694,0.0
51735.0,STARLINK-3517,PAYLOAD,2022-06-28 22:00:00,15.0883358,0.0001574,53.2176,258.4809,51.1211,118.1737,-0.0015572,-0.00024981,0.0,0 STARLINK-3517,1 51735U 22016X   22179.91667824 -.00024981  00000-0 -15572-2 0  9994,2 51735  53.2176 258.4809 0001574  51.1211 118.1737 15.08833580  1304,6917.9,95.438,540.854,538.6759999999998,0.0
51735.0,STARLINK-3517,PAYLOAD,2022-06-29 14:00:01,15.08812914,0.0001751,53.2178,255.4898,48.7376,143.7149,0.001768,0.00027941,0.0,0 STARLINK-3517,1 51735U 22016X   22180.58334491  .00027941  00000-0  17680-2 0  9999,2 51735  53.2178 255.4898 0001751  48.7376 143.7149 15.08812914 21011,6917.9630000000025,95.439,541.04,538.617,0.0
51735.0,STARLINK-3517,PAYLOAD,2022-06-29 22:00:00,15.08843406,0.0001619,53.2177,253.9921,50.8822,153.1449,-0.0013759,-0.00022121,0.0,0 STARLINK-3517,1 51735U 22016X   22180.91667824 -.00022121  00000-0 -13759-2 0  9995,2 51735  53.2177 253.9921 0001619  50.8822 153.1449 15.08843406  1301,6917.87,95.437,540.855,538.615,0.0
